{
    "links": {
        "self": "http://www.neowsapp.com/rest/v1/neo/3508167?api_key=iIulBulltgU6a56xZRHN4H3l9WmuAYTsLGpBGhQ2"
    },
    "id": "3508167",
    "neo_reference_id": "3508167",
    "name": "(2010 CN141)",
    "designation": "2010 CN141",
    "nasa_jpl_url": "http://ssd.jpl.nasa.gov/sbdb.cgi?sstr=3508167",
    "absolute_magnitude_h": 22.4,
    "estimated_diameter": {
        "kilometers": {
            "estimated_diameter_min": 0.0880146521,
            "estimated_diameter_max": 0.1968067451
        },
        "meters": {
            "estimated_diameter_min": 88.0146520901,
            "estimated_diameter_max": 196.8067450894
        },
        "miles": {
            "estimated_diameter_min": 0.0546897524,
            "estimated_diameter_max": 0.122290004
        },
        "feet": {
            "estimated_diameter_min": 288.7619911632,
            "estimated_diameter_max": 645.6914415591
        }
    },
    "is_potentially_hazardous_asteroid": false,
    "close_approach_data": [
        {
            "close_approach_date": "2009-12-20",
            "close_approach_date_full": "2009-Dec-20 20:41",
            "epoch_date_close_approach": 1261341660000,
            "relative_velocity": {
                "kilometers_per_second": "17.787306379",
                "kilometers_per_hour": "64034.3029644925",
                "miles_per_hour": "39788.4256392426"
            },
            "miss_distance": {
                "astronomical": "0.4133978018",
                "lunar": "160.8117449002",
                "kilometers": "61843430.611962166",
                "miles": "38427725.8649472508"
            },
            "orbiting_body": "Earth"
        },
        {
            "close_approach_date": "2011-09-30",
            "close_approach_date_full": "2011-Sep-30 01:42",
            "epoch_date_close_approach": 1317346920000,
            "relative_velocity": {
                "kilometers_per_second": "20.7768133938",
                "kilometers_per_hour": "74796.52821782",
                "miles_per_hour": "46475.6538806782"
            },
            "miss_distance": {
                "astronomical": "0.3542618833",
                "lunar": "137.8078726037",
                "kilometers": "52996823.163868571",
                "miles": "32930698.8972294398"
            },
            "orbiting_body": "Earth"
        },
        {
            "close_approach_date": "2138-09-25",
            "close_approach_date_full": "2138-Sep-25 09:34",
            "epoch_date_close_approach": 5324693640000,
            "relative_velocity": {
                "kilometers_per_second": "22.6834316337",
                "kilometers_per_hour": "81660.35388119",
                "miles_per_hour": "50740.5682213428"
            },
            "miss_distance": {
                "astronomical": "0.432156868",
                "lunar": "168.109021652",
                "kilometers": "64649746.95867116",
                "miles": "40171489.983375608"
            },
            "orbiting_body": "Earth"
        },
        {
            "close_approach_date": "2151-10-28",
            "close_approach_date_full": "2151-Oct-28 14:28",
            "epoch_date_close_approach": 5737789680000,
            "relative_velocity": {
                "kilometers_per_second": "15.493295231",
                "kilometers_per_hour": "55775.8628316047",
                "miles_per_hour": "34656.9521022268"
            },
            "miss_distance": {
                "astronomical": "0.0651011839",
                "lunar": "25.3243605371",
                "kilometers": "9738998.445918293",
                "miles": "6051533.0209787234"
            },
            "orbiting_body": "Earth"
        },
        {
            "close_approach_date": "2166-09-25",
            "close_approach_date_full": "2166-Sep-25 09:07",
            "epoch_date_close_approach": 6208304820000,
            "relative_velocity": {
                "kilometers_per_second": "22.7282269894",
                "kilometers_per_hour": "81821.6171618022",
                "miles_per_hour": "50840.7709525654"
            },
            "miss_distance": {
                "astronomical": "0.4334383257",
                "lunar": "168.6075086973",
                "kilometers": "64841450.301086259",
                "miles": "40290608.9167340142"
            },
            "orbiting_body": "Earth"
        }
    ],
    "orbital_data": {
        "orbit_id": "16",
        "orbit_determination_date": "2020-11-11 14:08:36",
        "first_observation_date": "2010-02-14",
        "last_observation_date": "2010-04-05",
        "data_arc_in_days": 50,
        "observations_used": 19,
        "orbit_uncertainty": "7",
        "minimum_orbit_intersection": ".0599287",
        "jupiter_tisserand_invariant": "4.338",
        "epoch_osculation": "2459000.5",
        "eccentricity": ".3990911876423613",
        "semi_major_axis": "1.516198508525223",
        "inclination": "23.79832513464963",
        "ascending_node_longitude": "37.89858263380295",
        "orbital_period": "681.918581301552",
        "perihelion_distance": ".9110970450563149",
        "perihelion_argument": "22.04202233935366",
        "aphelion_distance": "2.121299971994131",
        "perihelion_time": "2459270.590369247884",
        "mean_anomaly": "217.4132812986939",
        "mean_motion": ".5279222620871861",
        "equinox": "J2000",
        "orbit_class": {
            "orbit_class_type": "APO",
            "orbit_class_description": "Near-Earth asteroid orbits which cross the Earth’s orbit similar to that of 1862 Apollo",
            "orbit_class_range": "a (semi-major axis) > 1.0 AU; q (perihelion) < 1.017 AU"
        }
    },
    "is_sentry_object": false
}